{
  "type": "FeatureCollection",
  "features": [
    {
      "type": "Feature",
      "properties": {
        "norad_id": 29843,
        "name": "FENGYUN 1C DEB",
        "group": "fengyun-1c-debris",
        "lat": 69.53469480179736,
        "lon": 21.94836435025298,
        "alt_km": 913.3750442344244,
        "timestamp": "2025-12-04T15:47:54.369565+00:00",
        "meta_object_name": "FENGYUN 1C DEB",
        "meta_object_id": "1999-025EM",
        "meta_epoch": "2025-12-03T12:32:35.135232",
        "meta_mean_motion": 14.28545511,
        "meta_eccentricity": 0.01920544,
        "meta_inclination": 99.0379,
        "meta_ra_of_asc_node": 175.5267,
        "meta_arg_of_pericenter": 317.489,
        "meta_mean_anomaly": 72.9021,
        "meta_ephemeris_type": 0,
        "meta_classification_type": "U",
        "meta_norad_cat_id": 29843,
        "meta_element_set_no": 999,
        "meta_rev_at_epoch": 98150,
        "meta_bstar": 0.00026236049,
        "meta_mean_motion_dot": 7.48e-06,
        "meta_mean_motion_ddot": 0,
        "tle_line1": "1 29843U 99025EM  25337.52262888  .00000748  00000+0  26236-3 0  9992",
        "tle_line2": "2 29843  99.0379 175.5267 0192054 317.4890  72.9021 14.28545511981501"
      },
      "geometry": {
        "type": "Point",
        "coordinates": [
          21.94836435025298,
          69.53469480179736
        ]
      }
    },
    {
      "type": "Feature",
      "properties": {
        "norad_id": 29844,
        "name": "FENGYUN 1C DEB",
        "group": "fengyun-1c-debris",
        "lat": 48.95825343737962,
        "lon": -130.6582231796547,
        "alt_km": 873.1690041238717,
        "timestamp": "2025-12-04T15:47:54.369575+00:00",
        "meta_object_name": "FENGYUN 1C DEB",
        "meta_object_id": "1999-025EN",
        "meta_epoch": "2025-12-03T04:20:30.954912",
        "meta_mean_motion": 14.31942472,
        "meta_eccentricity": 0.01676683,
        "meta_inclination": 98.9366,
        "meta_ra_of_asc_node": 238.2334,
        "meta_arg_of_pericenter": 195.0502,
        "meta_mean_anomaly": 164.5658,
        "meta_ephemeris_type": 0,
        "meta_classification_type": "U",
        "meta_norad_cat_id": 29844,
        "meta_element_set_no": 999,
        "meta_rev_at_epoch": 98204,
        "meta_bstar": 0.00055201458,
        "meta_mean_motion_dot": 1.677e-05,
        "meta_mean_motion_ddot": 0,
        "tle_line1": "1 29844U 99025EN  25337.18091383  .00001677  00000+0  55201-3 0  9991",
        "tle_line2": "2 29844  98.9366 238.2334 0167668 195.0502 164.5658 14.31942472982046"
      },
      "geometry": {
        "type": "Point",
        "coordinates": [
          -130.6582231796547,
          48.95825343737962
        ]
      }
    },
    {
      "type": "Feature",
      "properties": {
        "norad_id": 29845,
        "name": "FENGYUN 1C DEB",
        "group": "fengyun-1c-debris",
        "lat": 75.42506359712047,
        "lon": -165.5679903996804,
        "alt_km": 762.5559887212121,
        "timestamp": "2025-12-04T15:47:54.369585+00:00",
        "meta_object_name": "FENGYUN 1C DEB",
        "meta_object_id": "1999-025EP",
        "meta_epoch": "2025-12-03T12:58:19.106688",
        "meta_mean_motion": 14.26442814,
        "meta_eccentricity": 0.00774815,
        "meta_inclination": 98.5216,
        "meta_ra_of_asc_node": 338.13,
        "meta_arg_of_pericenter": 157.9448,
        "meta_mean_anomaly": 327.9037,
        "meta_ephemeris_type": 0,
        "meta_classification_type": "U",
        "meta_norad_cat_id": 29845,
        "meta_element_set_no": 999,
        "meta_rev_at_epoch": 97978,
        "meta_bstar": 0.00079590018,
        "meta_mean_motion_dot": 1.935e-05,
        "meta_mean_motion_ddot": 0,
        "tle_line1": "1 29845U 99025EP  25337.54049892  .00001935  00000+0  79590-3 0  9994",
        "tle_line2": "2 29845  98.5216 338.1300 0077481 157.9448 327.9037 14.26442814979781"
      },
      "geometry": {
        "type": "Point",
        "coordinates": [
          -165.5679903996804,
          75.42506359712047
        ]
      }
    },
    {
      "type": "Feature",
      "properties": {
        "norad_id": 29846,
        "name": "FENGYUN 1C DEB",
        "group": "fengyun-1c-debris",
        "lat": -12.225815627744524,
        "lon": 22.556942331003686,
        "alt_km": 775.6856975010933,
        "timestamp": "2025-12-04T15:47:54.369595+00:00",
        "meta_object_name": "FENGYUN 1C DEB",
        "meta_object_id": "1999-025EQ",
        "meta_epoch": "2025-12-04T02:26:40.576992",
        "meta_mean_motion": 14.19083862,
        "meta_eccentricity": 0.00842092,
        "meta_inclination": 98.6563,
        "meta_ra_of_asc_node": 20.1219,
        "meta_arg_of_pericenter": 329.4393,
        "meta_mean_anomaly": 57.0543,
        "meta_ephemeris_type": 0,
        "meta_classification_type": "U",
        "meta_norad_cat_id": 29846,
        "meta_element_set_no": 999,
        "meta_rev_at_epoch": 97737,
        "meta_bstar": 0.00025107479,
        "meta_mean_motion_dot": 5e-06,
        "meta_mean_motion_ddot": 0,
        "tle_line1": "1 29846U 99025EQ  25338.10185853  .00000500  00000+0  25107-3 0  9998",
        "tle_line2": "2 29846  98.6563  20.1219 0084209 329.4393  57.0543 14.19083862977378"
      },
      "geometry": {
        "type": "Point",
        "coordinates": [
          22.556942331003686,
          -12.225815627744524
        ]
      }
    },
    {
      "type": "Feature",
      "properties": {
        "norad_id": 29847,
        "name": "FENGYUN 1C DEB",
        "group": "fengyun-1c-debris",
        "lat": -19.985150527318368,
        "lon": -21.986298530856427,
        "alt_km": 878.6425518628757,
        "timestamp": "2025-12-04T15:47:54.369605+00:00",
        "meta_object_name": "FENGYUN 1C DEB",
        "meta_object_id": "1999-025ER",
        "meta_epoch": "2025-12-03T23:01:54.630912",
        "meta_mean_motion": 14.02988565,
        "meta_eccentricity": 0.00857435,
        "meta_inclination": 98.9024,
        "meta_ra_of_asc_node": 334.0628,
        "meta_arg_of_pericenter": 63.1478,
        "meta_mean_anomaly": 351.1401,
        "meta_ephemeris_type": 0,
        "meta_classification_type": "U",
        "meta_norad_cat_id": 29847,
        "meta_element_set_no": 999,
        "meta_rev_at_epoch": 96612,
        "meta_bstar": 0.00025414229,
        "meta_mean_motion_dot": 3.65e-06,
        "meta_mean_motion_ddot": 0,
        "tle_line1": "1 29847U 99025ER  25337.95966008  .00000365  00000+0  25414-3 0  9990",
        "tle_line2": "2 29847  98.9024 334.0628 0085743  63.1478 351.1401 14.02988565966123"
      },
      "geometry": {
        "type": "Point",
        "coordinates": [
          -21.986298530856427,
          -19.985150527318368
        ]
      }
    },
    {
      "type": "Feature",
      "properties": {
        "norad_id": 29848,
        "name": "FENGYUN 1C DEB",
        "group": "fengyun-1c-debris",
        "lat": -2.4910875797160306,
        "lon": -153.8488584934576,
        "alt_km": 760.4121505963476,
        "timestamp": "2025-12-04T15:47:54.369615+00:00",
        "meta_object_name": "FENGYUN 1C DEB",
        "meta_object_id": "1999-025ES",
        "meta_epoch": "2025-12-03T14:42:13.423104",
        "meta_mean_motion": 14.20471606,
        "meta_eccentricity": 0.01177958,
        "meta_inclination": 98.2492,
        "meta_ra_of_asc_node": 204.8136,
        "meta_arg_of_pericenter": 321.9089,
        "meta_mean_anomaly": 90.9408,
        "meta_ephemeris_type": 0,
        "meta_classification_type": "U",
        "meta_norad_cat_id": 29848,
        "meta_element_set_no": 999,
        "meta_rev_at_epoch": 96988,
        "meta_bstar": 0.002203525,
        "meta_mean_motion_dot": 5.033e-05,
        "meta_mean_motion_ddot": 0,
        "tle_line1": "1 29848U 99025ES  25337.61265536  .00005033  00000+0  22035-2 0  9994",
        "tle_line2": "2 29848  98.2492 204.8136 0117795 321.9089  90.9408 14.20471606969884"
      },
      "geometry": {
        "type": "Point",
        "coordinates": [
          -153.8488584934576,
          -2.4910875797160306
        ]
      }
    },
    {
      "type": "Feature",
      "properties": {
        "norad_id": 29849,
        "name": "FENGYUN 1C DEB",
        "group": "fengyun-1c-debris",
        "lat": -61.918242296618146,
        "lon": 80.39383628607418,
        "alt_km": 922.1499895581128,
        "timestamp": "2025-12-04T15:47:54.369626+00:00",
        "meta_object_name": "FENGYUN 1C DEB",
        "meta_object_id": "1999-025ET",
        "meta_epoch": "2025-12-03T11:19:56.180064",
        "meta_mean_motion": 14.04843959,
        "meta_eccentricity": 0.00810468,
        "meta_inclination": 99.012,
        "meta_ra_of_asc_node": 61.912,
        "meta_arg_of_pericenter": 70.6361,
        "meta_mean_anomaly": 351.5475,
        "meta_ephemeris_type": 0,
        "meta_classification_type": "U",
        "meta_norad_cat_id": 29849,
        "meta_element_set_no": 999,
        "meta_rev_at_epoch": 96240,
        "meta_bstar": 0.0015656585,
        "meta_mean_motion_dot": 2.545e-05,
        "meta_mean_motion_ddot": 0,
        "tle_line1": "1 29849U 99025ET  25337.47217801  .00002545  00000+0  15657-2 0  9998",
        "tle_line2": "2 29849  99.0120  61.9120 0081046  70.6361 351.5475 14.04843959962404"
      },
      "geometry": {
        "type": "Point",
        "coordinates": [
          80.39383628607418,
          -61.918242296618146
        ]
      }
    }
  ]
}